{"type":"FeatureCollection","features":[{"type":"Feature","id":1,"geometry":{"type":"Point","coordinates":[-117.19244379999998,34.082804610000039]},"properties":{"OBJECTID":1,"Name":"CVHS","Category":"School","Description":"My high school. I graduated in 2015","lat":34.082804609999997,"long":-117.19244380000001,"InfoURL":"https://www.redlandsusd.net/cvhs","ImageURL":"https://resources.finalsite.net/images/f_auto,q_auto,t_image_size_2/v1771523850/redlandsusdnet/qswvukenrbdxds0p9nd1/composer-citrusvalley-logo.png"}},{"type":"Feature","id":2,"geometry":{"type":"Point","coordinates":[-119.84717169999999,34.414997030000052]},"properties":{"OBJECTID":2,"Name":"UCSB","Category":"School","Description":"I did my undergrad here! I double majored in Physics and Geography.","lat":34.414997030000002,"long":-119.8471717,"InfoURL":"https://www.ucsb.edu/","ImageURL":"data/images/me_ucsb.jpg"}},{"type":"Feature","id":3,"geometry":{"type":"Point","coordinates":[-105.25475729999994,40.090482670000029]},"properties":{"OBJECTID":3,"Name":"UCB","Category":"School","Description":"Just wrapped up my thesis after a 4-year journey at Boulder. You can go back to my website with this link.","lat":40.09048267,"long":-105.25475729999999,"InfoURL":"https://www.colorado.edu/","ImageURL":"Pics coming soon!"}},{"type":"Feature","id":4,"geometry":{"type":"Point","coordinates":[-117.55606249999994,34.217259290000072]},"properties":{"OBJECTID":4,"Name":"Chaffey","Category":"School","Description":"My first steps into upper education. After graduating high school, I received reduce tuition here for playing on the intercolligiate water polo team. I graduated with the intent to transfer to a UC.","lat":34.217259290000001,"long":-117.5560625,"InfoURL":"https://www.chaffey.edu/","ImageURL":"Pics coming soon!"}},{"type":"Feature","id":5,"geometry":{"type":"Point","coordinates":[-117.20423659999994,34.122050080000065]},"properties":{"OBJECTID":5,"Name":"Highland","Category":"Home","Description":"High School Residence","lat":34.122050080000001,"long":-117.2042366,"InfoURL":"https://en.wikipedia.org/wiki/Highland,_California","ImageURL":"Pics coming soon!"}},{"type":"Feature","id":6,"geometry":{"type":"Point","coordinates":[-119.84653469999995,34.440667280000071]},"properties":{"OBJECTID":6,"Name":"Goleta","Category":"Home","Description":"Undergraduate Residence","lat":34.44066728,"long":-119.84653470000001,"InfoURL":"https://en.wikipedia.org/wiki/Goleta,_California","ImageURL":"Pics coming soon!"}},{"type":"Feature","id":7,"geometry":{"type":"Point","coordinates":[-105.27406369999994,40.018820470000037]},"properties":{"OBJECTID":7,"Name":"Boulder","Category":"Home","Description":"Graduate School","lat":40.018820470000001,"long":-105.2740637,"InfoURL":"https://en.wikipedia.org/wiki/Boulder,_Colorado","ImageURL":"Pics coming soon!"}},{"type":"Feature","id":8,"geometry":{"type":"Point","coordinates":[-122.41838449999995,37.779253880000056]},"properties":{"OBJECTID":8,"Name":"San Francisco","Category":"Home","Description":"Family","lat":37.779253879999999,"long":-122.4183845,"InfoURL":"https://en.wikipedia.org/wiki/San_Francisco_Bay_Area,_California","ImageURL":"Pics coming soon!"}},{"type":"Feature","id":9,"geometry":{"type":"Point","coordinates":[-91.538074699999981,36.320891890000041]},"properties":{"OBJECTID":9,"Name":"Cherokee Village","Category":"Home","Description":"My Grandparent's Retirement Community and Final Resting Place.","lat":36.320891889999999,"long":-91.538074699999996,"InfoURL":"https://en.wikipedia.org/wiki/Cherokee_Village,_Arkansas","ImageURL":"Pics coming soon!"}},{"type":"Feature","id":10,"geometry":{"type":"Point","coordinates":[-122.33327679999996,47.605676370000026]},"properties":{"OBJECTID":10,"Name":"Seattle, WA","Category":"Home","Description":"Current Residence","lat":47.605676369999998,"long":-122.33327679999999,"InfoURL":"https://en.wikipedia.org/wiki/Seattle","ImageURL":"https://upload.wikimedia.org/wikipedia/commons/thumb/3/30/Seattle_Downtown_Aerial%2C_July_2025_%28zoomed%29.jpg/500px-Seattle_Downtown_Aerial%2C_July_2025_%28zoomed%29.jpg"}},{"type":"Feature","id":11,"geometry":{"type":"Point","coordinates":[-93.660883999999953,41.537151540000025]},"properties":{"OBJECTID":11,"Name":"Des Moines, IA","Category":"Road Trip","Description":"The start of a road trip to the Black Hills National Forest. My brother and I flew into Des Moines International Airport when we were 15/12, repectively.","lat":41.537151540000004,"long":-93.660883999999996,"InfoURL":"https://en.wikipedia.org/wiki/Des_Moines,_Iowa","ImageURL":"https://upload.wikimedia.org/wikipedia/commons/thumb/c/c7/Morning_Skyline_-_Des_Moines%2C_Iowa_-_Winter_on_the_Des_Moines_River_%2824805016620%29_%28cropped2%29.jpg/500px-Morning_Skyline_-_Des_Moines%2C_Iowa_-_Winter_on_the_Des_Moines_River_%2824805016620%29_%28cropped2%29.jpg"}},{"type":"Feature","id":12,"geometry":{"type":"Point","coordinates":[-97.989507799999956,42.780286940000053]},"properties":{"OBJECTID":12,"Name":"Hendrickson’s R.V. Haven & Campground","Category":"Road Trip","Description":"Our grand parents took us here as our first stop after Des Moine. My brother and I went cliff diving here!","lat":42.780286940000003,"long":-97.989507799999998,"InfoURL":"https://hendricksonsrvhaven.weebly.com/","ImageURL":"https://hendricksonsrvhaven.weebly.com/uploads/9/4/0/4/9404791/img-3393_orig.jpg"}},{"type":"Feature","id":13,"geometry":{"type":"Point","coordinates":[-102.35293689999997,43.88272347000003]},"properties":{"OBJECTID":13,"Name":"Badlands National Park, SD","Category":"Road Trip","Description":"Filler Space until I remember where we stopped in-between here and the bandlands","lat":43.882723470000002,"long":-102.3529369,"InfoURL":"https://en.wikipedia.org/wiki/Badlands_National_Park","ImageURL":"https://upload.wikimedia.org/wikipedia/commons/thumb/b/b9/MK00609_Badlands.jpg/500px-MK00609_Badlands.jpg"}},{"type":"Feature","id":14,"geometry":{"type":"Point","coordinates":[-103.84600249999994,44.034329770000056]},"properties":{"OBJECTID":14,"Name":"Black Hills National Forest, SD","Category":"Road Trip","Description":"Final Stop for road trip 1! We had arrived when several Greenpeace activists rappelled over the face of the Abraham Lincoln carving and unfurled a 65 foot by 35 foot banner to the right of Abraham Lincoln,","lat":44.034329769999999,"long":-103.8460025,"InfoURL":"https://www.nps.gov/moru/learn/news/greenpeace-demonstration-on-mount-rushmore.htm","ImageURL":"https://upload.wikimedia.org/wikipedia/commons/thumb/0/05/Needles_from_Harney_Peak.JPG/500px-Needles_from_Harney_Peak.JPG"}},{"type":"Feature","id":15,"geometry":{"type":"Point","coordinates":[-92.644996599999956,44.033231930000056]},"properties":{"OBJECTID":15,"Name":"Byron, MN","Category":"Road Trip","Description":"My cousine lived near by here. We parked at his farm and spent a couple days here on the way back.","lat":44.033231929999999,"long":-92.644996599999999,"InfoURL":"https://en.wikipedia.org/wiki/Byron,_Minnesota","ImageURL":"https://upload.wikimedia.org/wikipedia/commons/thumb/7/7a/Byron_City_Hall.jpg/500px-Byron_City_Hall.jpg"}},{"type":"Feature","id":16,"geometry":{"type":"Point","coordinates":[-96.733225199999936,43.544687410000051]},"properties":{"OBJECTID":16,"Name":"Sioux Falls, SD","Category":"Road Trip","Description":"My Grandparents had some friends that lived just outside of Souix Falls.","lat":43.544687410000002,"long":-96.733225200000007,"InfoURL":"https://en.wikipedia.org/wiki/Sioux_Falls,_South_Dakota","ImageURL":"https://upload.wikimedia.org/wikipedia/commons/thumb/3/3c/Downtown_and_Falls_Park_03-16-24.jpg/500px-Downtown_and_Falls_Park_03-16-24.jpg"}},{"type":"Feature","id":17,"geometry":{"type":"Point","coordinates":[-117.29209139999995,34.103023110000038]},"properties":{"OBJECTID":17,"Name":"San Bernardino, CA","Category":"Road Trip","Description":"I spent a majoriy of my early teens moving throughout San Bernardino. When I was 9-10, My grandparents picked us up from our house at the time and took us on a road trip up PCH1!","lat":34.103023110000002,"long":-117.2920914,"InfoURL":"https://en.wikipedia.org/wiki/San_Bernardino,_California","ImageURL":"https://upload.wikimedia.org/wikipedia/commons/thumb/c/c3/Sb_2004_dt_skyline_006a.jpg/500px-Sb_2004_dt_skyline_006a.jpg"}},{"type":"Feature","id":18,"geometry":{"type":"Point","coordinates":[-120.62539969999995,35.113077050000072]},"properties":{"OBJECTID":18,"Name":"Pismo Beach, CA","Category":"Road Trip","Description":"We stayed at Coastal Dunes RV Park on the way to and from Monetray up Pacific Coast Highway 1. I have fond memories of walking the beach with my brother here after setting up the RV.","lat":35.113077050000001,"long":-120.6253997,"InfoURL":"https://en.wikipedia.org/wiki/Pismo_Beach,_California","ImageURL":"https://imgs.search.brave.com/NlRY9-qvyXrRGy731QgxR4q0OE8eVYsmo74DLqppcWw/rs:fit:500:0:1:0/g:ce/aHR0cHM6Ly9pbWcu/cGluZWNsaWZmcmVz/b3J0Lm5ldC9kNDUv/MjUwMi8xNTMyMTE4/MDc2LndlYnA"}},{"type":"Feature","id":19,"geometry":{"type":"Point","coordinates":[-121.89812189999998,36.596843360000037]},"properties":{"OBJECTID":19,"Name":"Monterey, CA","Category":"Road Trip","Description":"My grandparents stayed at the Monterey Pines RV Campground and took my mother to the aquarium here when she was younger. They wanted to do the same for us and let us explore the city when we stayed here. ","lat":36.596843360000001,"long":-121.89812190000001,"InfoURL":"https://en.wikipedia.org/wiki/Monterey,_California","ImageURL":"https://upload.wikimedia.org/wikipedia/commons/thumb/0/07/Aerial_view_-_Monterey_CA_%28cropped%29.jpg/500px-Aerial_view_-_Monterey_CA_%28cropped%29.jpg"}},{"type":"Feature","id":20,"geometry":{"type":"Point","coordinates":[-119.85872899999998,34.409764700000039]},"properties":{"OBJECTID":20,"Name":"Isla Vista, CA","Category":"Road Trip","Description":"Started at the place I was renting in Goleta, CA when I attended UCSB. From here, the desitnation was our friend's home in Texas for a New Years celebration. ","lat":34.409764699999997,"long":-119.858729,"InfoURL":"https://en.wikipedia.org/wiki/Isla_Vista,_California","ImageURL":"https://upload.wikimedia.org/wikipedia/commons/thumb/7/7f/WelcomeToIslaVista.png/500px-WelcomeToIslaVista.png"}},{"type":"Feature","id":21,"geometry":{"type":"Point","coordinates":[-106.78177679999999,32.371089910000023]},"properties":{"OBJECTID":21,"Name":"Las Cruces, NM","Category":"Road Trip","Description":"I've driven through here many times during road trips to and from Houston, TX.","lat":32.371089910000002,"long":-106.7817768,"InfoURL":"https://en.wikipedia.org/wiki/Las_Cruces,_New_Mexico","ImageURL":"Pics coming soon!"}},{"type":"Feature","id":22,"geometry":{"type":"Point","coordinates":[-95.394595099999947,29.758530470000039]},"properties":{"OBJECTID":22,"Name":"Houston, TX","Category":"Road Trip","Description":"End destination for friend trip 1!","lat":29.75853047,"long":-95.394595100000004,"InfoURL":"https://en.wikipedia.org/wiki/Houston,_Texas","ImageURL":"https://upload.wikimedia.org/wikipedia/commons/thumb/6/62/Downtown_Houston%2C_TX_Skyline_-_2018.jpg/500px-Downtown_Houston%2C_TX_Skyline_-_2018.jpg"}},{"type":"Feature","id":23,"geometry":{"type":"Point","coordinates":[-123.97621759999998,40.868170830000054]},"properties":{"OBJECTID":23,"Name":"Eureka, CA","Category":"Road Trip","Description":"Started at my friend's place in Arcata, CA. There was a lot of fun farmers markets and coastal trails in Eureka that I remember having a great time at. ","lat":40.868170829999997,"long":-123.9762176,"InfoURL":"https://en.wikipedia.org/wiki/Eureka,_California","ImageURL":"Pics coming soon!"}},{"type":"Feature","id":24,"geometry":{"type":"Point","coordinates":[-122.32639419999998,41.330359580000049]},"properties":{"OBJECTID":24,"Name":"Mt. Shasta, CA","Category":"Road Trip","Description":"Spent some time at Lake Shasta. ","lat":41.33035958,"long":-122.3263942,"InfoURL":"https://en.wikipedia.org/wiki/Mount_Shasta","ImageURL":"https://upload.wikimedia.org/wikipedia/commons/thumb/2/22/MtShasta_aerial.JPG/500px-MtShasta_aerial.JPG"}},{"type":"Feature","id":25,"geometry":{"type":"Point","coordinates":[-122.67797679999995,45.514537260000054]},"properties":{"OBJECTID":25,"Name":"Portland, OR","Category":"Road Trip","Description":"As a major in city in Oregon, we had to stop here! This city had some of the most unique food combinations I've had in my life. All of it 5 stars!","lat":45.514537259999997,"long":-122.6779768,"InfoURL":"https://en.wikipedia.org/wiki/Portland,_Oregon","ImageURL":"Pics coming soon!"}},{"type":"Feature","id":26,"geometry":{"type":"Point","coordinates":[-122.32306569999997,47.624229000000071]},"properties":{"OBJECTID":26,"Name":"Capitol Hill, Seattle, WA","Category":"Road Trip","Description":"There was an AirBnB in Cap. Hill that served as a fantastic center point for seeing the city.","lat":47.624229,"long":-122.3230657,"InfoURL":"https://en.wikipedia.org/wiki/Capitol_Hill,_Seattle","ImageURL":"Pics coming soon!"}},{"type":"Feature","id":27,"geometry":{"type":"Point","coordinates":[-113.55987509999994,43.465586260000066]},"properties":{"OBJECTID":27,"Name":"Craters of the Moon National Monument & Preserve","Category":"Road Trip","Description":"Camped at the Robert Limbert Visitor Center. Great place to hike through sprawling lava fields.","lat":43.465586260000002,"long":-113.5598751,"InfoURL":"https://en.wikipedia.org/wiki/Craters_of_the_Moon_National_Monument_and_Preserve","ImageURL":"Pics coming soon!"}},{"type":"Feature","id":28,"geometry":{"type":"Point","coordinates":[-111.22984439999999,43.363737950000029]},"properties":{"OBJECTID":28,"Name":"Palisades, ID","Category":"Road Trip","Description":"There was a fun little canvas glamping (glamourous camping) AirBnB somewhere in an RV park near here. Our shelter proveded a great space to experience a lightningstorm passing over. ","lat":43.363737950000001,"long":-111.2298444,"InfoURL":"https://www.recreation.gov/gateways/1250","ImageURL":"Pics coming soon!"}},{"type":"Feature","id":29,"geometry":{"type":"Point","coordinates":[-111.11153539999998,43.602939630000037]},"properties":{"OBJECTID":29,"Name":"Victor, ID","Category":"Road Trip","Description":"There was a hotel/motel here that we had to stay at after not finding a camp-ground at the Tetons. It was a pretty nice area, but the main POI was Yellowstone/the Grand Tetons so not much time was spent here.","lat":43.602939630000002,"long":-111.11153539999999,"InfoURL":"https://en.wikipedia.org/wiki/Victor,_Idaho","ImageURL":"https://imgs.search.brave.com/DFQwhhX2vkMErjEcTNWRs4t5spKUKdfLXwGK0Mcp7fw/rs:fit:500:0:1:0/g:ce/aHR0cHM6Ly93d3cu/c2h1dHRlcnN0b2Nr/LmNvbS9pbWFnZS1w/aG90by92aWN0b3It/aWRhaG8tanVuZS0y/OC0yMDE3LTI2MG53/LTY4MzYyMzU2Ny5q/cGc"}},{"type":"Feature","id":30,"geometry":{"type":"Point","coordinates":[-105.24000929999994,40.030102830000033]},"properties":{"OBJECTID":30,"Name":"Valmont, CO","Category":"Road Trip","Description":"I lived in this area for almost three years after my first year in graduate school. My housemate and I went on a road trip to visit our friend in Seattle, WA.","lat":40.030102829999997,"long":-105.2400093,"InfoURL":"https://en.wikipedia.org/wiki/Valmont,_Colorado","ImageURL":"Pics coming soon!"}},{"type":"Feature","id":31,"geometry":{"type":"Point","coordinates":[-109.55075219999998,38.573568330000057]},"properties":{"OBJECTID":31,"Name":"Moab, UT","Category":"Road Trip","Description":"My house mate and I met a buddy out here on our way out to Seattle. We stayed at a rather charming motel before making the journey to Twin Falls, ID.","lat":38.573568330000001,"long":-109.55075220000001,"InfoURL":"https://en.wikipedia.org/wiki/Moab,_Utah","ImageURL":"Pics coming soon!"}},{"type":"Feature","id":32,"geometry":{"type":"Point","coordinates":[-114.46074659999999,42.631701980000059]},"properties":{"OBJECTID":32,"Name":"Twin Falls, ID","Category":"Road Trip","Description":"Spent a brief amount of time here on various trips to and from Seattle.","lat":42.631701980000003,"long":-114.46074659999999,"InfoURL":"https://en.wikipedia.org/wiki/Twin_Falls,_Idaho","ImageURL":"Pics coming soon!"}},{"type":"Feature","id":33,"geometry":{"type":"Point","coordinates":[-121.31502139999998,44.057392750000076]},"properties":{"OBJECTID":33,"Name":"Bend, OR","Category":"Road Trip","Description":"My housemate had a co-worker/friend living in Bend, OR. We stayed ay their house for a day or so and breifly toured the town.","lat":44.057392749999998,"long":-121.31502140000001,"InfoURL":"https://en.wikipedia.org/wiki/Bend,_Oregon","ImageURL":"Pics coming soon!"}},{"type":"Feature","id":34,"geometry":{"type":"Point","coordinates":[-122.30206619999996,47.552869440000052]},"properties":{"OBJECTID":34,"Name":"Beacon Hill, Seattle","Category":"Road Trip","Description":"The final destination of road trip 3!","lat":47.552869440000002,"long":-122.3020662,"InfoURL":"https://en.wikipedia.org/wiki/Beacon_Hill,_Seattle","ImageURL":"Pics coming soon!"}},{"type":"Feature","id":35,"geometry":{"type":"Point","coordinates":[-111.69287309999999,32.875767120000035]},"properties":{"OBJECTID":35,"Name":"Integrating Machine Learning and Geostatistics for High-Resolution Surface Ozone Mapping: A Case Study in Arizona","Category":"GIS Analysis","Description":"I wrote a thesis depicting the movement of surface ozone at a high resolution. I selected this area due to shared interest with my advisor and it's meteorological trends over time. ","lat":32.875767119999999,"long":-111.6928731,"InfoURL":null,"ImageURL":null}}]}